*******************************************************************************
JPL/HORIZONS             486958 Arrokoth (2014 MU69)       2024-May-13 03:24:01
Rec #:  486958 (+COV) Soln.date: 2024-Feb-21_21:21:36    # obs: 112 (2014-2018)
 
IAU76/J2000 helio. ecliptic osc. elements (au, days, deg., period=Julian yrs):
 
  EPOCH=  2458101.5 ! 2017-Dec-14.00 (TDB)         Residual RMS= .00066411
   EC= .03868645692376498  QR= 42.72577233600888   TP= 2472213.5237931227
   OM= 158.939446659904    W=  176.1507602341478   IN= 2.45301305206896
   A= 44.44519963724322    MA= 313.05859524999     ADIST= 46.16462693847756
   PER= 296.30944          N= .003326341           ANGMOM= .114595783
   DAN= 46.16044           DDN= 42.72936           L= 335.0937235
   B= .1646241             MOID= 41.71509933       TP= 2056-Aug-03.0237931227
 
Asteroid physical parameters (km, seconds, rotational period in hours):
   GM= n.a.                RAD= n.a.               ROTPER= 15.918
   H= 11.06                G= .150                 B-V= n.a.
                           ALBEDO= n.a.            STYP= n.a.

ASTEROID comments: 
1: soln ref.= JPL#3, OCC=4
2: source=ORB
*******************************************************************************


*******************************************************************************
Ephemeris / WWW_USER Mon May 13 03:24:01 2024 Pasadena, USA      / Horizons
*******************************************************************************
Target body name: 486958 Arrokoth (2014 MU69)     {source: JPL#3}
Center body name: Sun (10)                        {source: DE441}
Center-site name: BODY CENTER
*******************************************************************************
Start time      : A.D. 1900-Jan-01 00:00:00.0000 TDB
Stop  time      : A.D. 2300-Jan-01 00:00:00.0000 TDB
Step-size       : 1 calendar years
*******************************************************************************
Center geodetic : 0.0, 0.0, 0.0                   {E-lon(deg),Lat(deg),Alt(km)}
Center cylindric: 0.0, 0.0, 0.0                   {E-lon(deg),Dxy(km),Dz(km)}
Center radii    : 695700.0, 695700.0, 695700.0 km {Equator_a, b, pole_c}
Small perturbers: Yes                             {source: SB441-N16}
Output units    : AU-D
Calendar mode   : Mixed Julian/Gregorian
Output type     : GEOMETRIC cartesian states
Output format   : 1x (position w/uncertainties: XYZ)
Reference frame : Ecliptic of J2000.0
*******************************************************************************
Initial IAU76/J2000 heliocentric ecliptic osculating elements (au, days, deg.):
  EPOCH=  2458101.5 ! 2017-Dec-14.00 (TDB)         Residual RMS= .00066411     
   EC= .03868645692376498  QR= 42.72577233600888   TP= 2472213.5237931227      
   OM= 158.939446659904    W=  176.1507602341478   IN= 2.45301305206896        
  Equivalent ICRF heliocentric cartesian coordinates (au, au/d):
   X= 1.107531870632331E+01  Y=-3.898605591950117E+01  Z=-1.526520060141716E+01
  VX= 2.538087724131930E-03 VY= 7.145491198143598E-04 VZ= 2.345763606455680E-04
Asteroid physical parameters (km, seconds, rotational period in hours):        
   GM= n.a.                RAD= n.a.               ROTPER= 15.918              
   H= 11.06                G= .150                 B-V= n.a.                   
                           ALBEDO= n.a.            STYP= n.a.                  
*******************************************************************************
            JDTDB             Calendar Date (TDB),                      X,                      Y,                      Z,             X_s,             Y_s,             Z_s,
*****************************************************************************************************************************************************************************
$$SOE
2478938.500000000, A.D. 2075-Jan-01 00:00:00.0000,  4.261177843182720E+01, -3.905605825561664E-01, -6.363472735500932E-01,  2.37392408E-02,  3.19581202E-02,  1.00264596E-03,
2479303.500000000, A.D. 2076-Jan-01 00:00:00.0000,  4.261946431060417E+01,  5.855711485925087E-01, -6.755675059221744E-01,  2.46909482E-02,  3.24160846E-02,  1.00716466E-03,
2479669.500000000, A.D. 2077-Jan-01 00:00:00.0000,  4.260663370264024E+01,  1.564227622263248E+00, -7.145800068738238E-01,  2.56698182E-02,  3.28582150E-02,  1.01065042E-03,
2480034.500000000, A.D. 2078-Jan-01 00:00:00.0000,  4.257320402941822E+01,  2.540148457854441E+00, -7.531502981976715E-01,  2.66702723E-02,  3.32810294E-02,  1.01304944E-03,
2480399.500000000, A.D. 2079-Jan-01 00:00:00.0000,  4.251878373429840E+01,  3.515957446315376E+00, -7.913583852206318E-01,  2.76946739E-02,  3.36846962E-02,  1.01433909E-03,
2480764.500000000, A.D. 2080-Jan-01 00:00:00.0000,  4.244278528051268E+01,  4.491408762088770E+00, -8.291712036529016E-01,  2.87426975E-02,  3.40681537E-02,  1.01448698E-03,
2481130.500000000, A.D. 2081-Jan-01 00:00:00.0000,  4.234425554610921E+01,  5.468579559456919E+00, -8.666553833359195E-01,  2.98169374E-02,  3.44313054E-02,  1.01345757E-03,
2481495.500000000, A.D. 2082-Jan-01 00:00:00.0000,  4.222316526806588E+01,  6.441126817222966E+00, -9.035704552771971E-01,  3.09111047E-02,  3.47711116E-02,  1.01122673E-03,
2481860.500000000, A.D. 2083-Jan-01 00:00:00.0000,  4.207910702997047E+01,  7.410434613801502E+00, -9.399915446654704E-01,  3.20276404E-02,  3.50875511E-02,  1.00776521E-03,
2482225.500000000, A.D. 2084-Jan-01 00:00:00.0000,  4.191243981286853E+01,  8.375184992894789E+00, -9.759030931970893E-01,  3.31660348E-02,  3.53795945E-02,  1.00304685E-03,
2482591.500000000, A.D. 2085-Jan-01 00:00:00.0000,  4.172337327843840E+01,  9.337015580178749E+00, -1.011395187142737E+00,  3.43289353E-02,  3.56469212E-02,  9.97029343E-04,
2482956.500000000, A.D. 2086-Jan-01 00:00:00.0000,  4.151382756214635E+01,  1.029013961208562E+01, -1.046273315239148E+00,  3.55093809E-02,  3.58870672E-02,  9.89723671E-04,
2483321.500000000, A.D. 2087-Jan-01 00:00:00.0000,  4.128405811718677E+01,  1.123702105748821E+01, -1.080632875261747E+00,  3.67098707E-02,  3.60998144E-02,  9.81095710E-04,
2483686.500000000, A.D. 2088-Jan-01 00:00:00.0000,  4.103455252440199E+01,  1.217770696910300E+01, -1.114466590380665E+00,  3.79297121E-02,  3.62841993E-02,  9.71128682E-04,
2484052.500000000, A.D. 2089-Jan-01 00:00:00.0000,  4.076479167305471E+01,  1.311486367687875E+01, -1.147853350562400E+00,  3.91715865E-02,  3.64396655E-02,  9.59775944E-04,
2484417.500000000, A.D. 2090-Jan-01 00:00:00.0000,  4.047623185969423E+01,  1.404344115888647E+01, -1.180592922890958E+00,  4.04279257E-02,  3.65644463E-02,  9.47089151E-04,
2484782.500000000, A.D. 2091-Jan-01 00:00:00.0000,  4.016792965910438E+01,  1.496598790788067E+01, -1.212754410857204E+00,  4.17012738E-02,  3.66581194E-02,  9.33032595E-04,
2485147.500000000, A.D. 2092-Jan-01 00:00:00.0000,  3.983948371180900E+01,  1.588223740973059E+01, -1.244311186556470E+00,  4.29907640E-02,  3.67198247E-02,  9.17603979E-04,
2485513.500000000, A.D. 2093-Jan-01 00:00:00.0000,  3.948941511779467E+01,  1.679408539913932E+01, -1.275316325126951E+00,  4.42990838E-02,  3.67487647E-02,  9.00757858E-04,
2485878.500000000, A.D. 2094-Jan-01 00:00:00.0000,  3.911931406560922E+01,  1.769557682022171E+01, -1.305572734643696E+00,  4.56181370E-02,  3.67439777E-02,  8.82594106E-04,
2486243.500000000, A.D. 2095-Jan-01 00:00:00.0000,  3.872831827545695E+01,  1.858796711373789E+01, -1.335146022253818E+00,  4.69504986E-02,  3.67048198E-02,  8.63082519E-04,
2486608.500000000, A.D. 2096-Jan-01 00:00:00.0000,  3.831701125793550E+01,  1.947008348431432E+01, -1.364027694335720E+00,  4.82951553E-02,  3.66305602E-02,  8.42244327E-04,
2486974.500000000, A.D. 2097-Jan-01 00:00:00.0000,  3.788514348931368E+01,  2.034347799156476E+01, -1.392296277689084E+00,  4.96547868E-02,  3.65201571E-02,  8.20047024E-04,
2487339.500000000, A.D. 2098-Jan-01 00:00:00.0000,  3.743608240030871E+01,  2.120301241308798E+01, -1.419802023660365E+00,  5.10208762E-02,  3.63735607E-02,  7.96652082E-04,
2487704.500000000, A.D. 2099-Jan-01 00:00:00.0000,  3.696950710950362E+01,  2.205109265348839E+01, -1.446625622176834E+00,  5.23960073E-02,  3.61899061E-02,  7.72052802E-04,
2488069.500000000, A.D. 2100-Jan-01 00:00:00.0000,  3.648599534690246E+01,  2.288789508290183E+01, -1.472765164851700E+00,  5.37790364E-02,  3.59686223E-02,  7.46316028E-04,
2488434.500000000, A.D. 2101-Jan-01 00:00:00.0000,  3.598582513118718E+01,  2.371365211472815E+01, -1.498211665222767E+00,  5.51687936E-02,  3.57091828E-02,  7.19526672E-04,
2488799.500000000, A.D. 2102-Jan-01 00:00:00.0000,  3.546904329780941E+01,  2.452856300317072E+01, -1.522951357780076E+00,  5.65640837E-02,  3.54111082E-02,  6.91792144E-04,
2489164.500000000, A.D. 2103-Jan-01 00:00:00.0000,  3.493545652494826E+01,  2.533266447156083E+01, -1.546964749409734E+00,  5.79636871E-02,  3.50739691E-02,  6.63248107E-04,
2489529.500000000, A.D. 2104-Jan-01 00:00:00.0000,  3.438469126143678E+01,  2.612577668955523E+01, -1.570226772196993E+00,  5.93663606E-02,  3.46973870E-02,  6.34065958E-04,
2489895.500000000, A.D. 2105-Jan-01 00:00:00.0000,  3.381476050486874E+01,  2.690947333938214E+01, -1.592771744162496E+00,  6.07746876E-02,  3.42798394E-02,  6.04381094E-04,
2490260.500000000, A.D. 2106-Jan-01 00:00:00.0000,  3.322852918615641E+01,  2.767853031381270E+01, -1.614451472118839E+00,  6.21796843E-02,  3.38233321E-02,  5.74631305E-04,
2490625.500000000, A.D. 2107-Jan-01 00:00:00.0000,  3.262465608860289E+01,  2.843393993461556E+01, -1.635312925029597E+00,  6.35838963E-02,  3.33265567E-02,  5.45085082E-04,
2490990.500000000, A.D. 2108-Jan-01 00:00:00.0000,  3.200384862493853E+01,  2.917461553238734E+01, -1.655352877816005E+00,  6.49860110E-02,  3.27893487E-02,  5.16185573E-04,
2491356.500000000, A.D. 2109-Jan-01 00:00:00.0000,  3.136536786124703E+01,  2.990182303769896E+01, -1.674627991773620E+00,  6.63885292E-02,  3.22099685E-02,  4.88419379E-04,
